[{"OBJECT_NAME":"KINEIS-5E","OBJECT_ID":"2024-219C","EPOCH":"2026-04-27T06:35:13.197120","MEAN_MOTION":14.72323078,"ECCENTRICITY":0.00077365,"INCLINATION":97.8946,"RA_OF_ASC_NODE":277.6767,"ARG_OF_PERICENTER":74.7699,"MEAN_ANOMALY":285.4363,"EPHEMERIS_TYPE":0,"CLASSIFICATION_TYPE":"U","NORAD_CAT_ID":62083,"ELEMENT_SET_NO":999,"REV_AT_EPOCH":7627,"BSTAR":0.00012657626,"MEAN_MOTION_DOT":7.52e-6,"MEAN_MOTION_DDOT":0},{"OBJECT_NAME":"KINEIS-5A","OBJECT_ID":"2024-219D","EPOCH":"2026-04-27T07:25:30.343872","MEAN_MOTION":14.72290296,"ECCENTRICITY":0.00072228,"INCLINATION":97.9285,"RA_OF_ASC_NODE":277.9723,"ARG_OF_PERICENTER":87.9839,"MEAN_ANOMALY":272.2195,"EPHEMERIS_TYPE":0,"CLASSIFICATION_TYPE":"U","NORAD_CAT_ID":62084,"ELEMENT_SET_NO":999,"REV_AT_EPOCH":7628,"BSTAR":0.00018223271,"MEAN_MOTION_DOT":1.103e-5,"MEAN_MOTION_DDOT":0},{"OBJECT_NAME":"KINEIS-5B","OBJECT_ID":"2024-219E","EPOCH":"2026-04-27T06:46:02.386848","MEAN_MOTION":14.78219198,"ECCENTRICITY":0.00032817,"INCLINATION":98.0018,"RA_OF_ASC_NODE":281.4295,"ARG_OF_PERICENTER":85.3191,"MEAN_ANOMALY":274.8394,"EPHEMERIS_TYPE":0,"CLASSIFICATION_TYPE":"U","NORAD_CAT_ID":62085,"ELEMENT_SET_NO":999,"REV_AT_EPOCH":7648,"BSTAR":0.00018506628,"MEAN_MOTION_DOT":1.29e-5,"MEAN_MOTION_DDOT":0},{"OBJECT_NAME":"KINEIS-2C","OBJECT_ID":"2025-028B","EPOCH":"2026-04-26T16:55:09.640416","MEAN_MOTION":14.72957967,"ECCENTRICITY":0.00023654,"INCLINATION":98.0489,"RA_OF_ASC_NODE":171.2888,"ARG_OF_PERICENTER":115.6509,"MEAN_ANOMALY":244.4944,"EPHEMERIS_TYPE":0,"CLASSIFICATION_TYPE":"U","NORAD_CAT_ID":62929,"ELEMENT_SET_NO":999,"REV_AT_EPOCH":6503,"BSTAR":0.00021727365,"MEAN_MOTION_DOT":1.344e-5,"MEAN_MOTION_DDOT":0},{"OBJECT_NAME":"KINEIS-2D","OBJECT_ID":"2025-028C","EPOCH":"2026-04-27T03:02:38.315040","MEAN_MOTION":14.75518621,"ECCENTRICITY":0.00036158,"INCLINATION":97.9324,"RA_OF_ASC_NODE":170.5527,"ARG_OF_PERICENTER":35.4782,"MEAN_ANOMALY":324.6667,"EPHEMERIS_TYPE":0,"CLASSIFICATION_TYPE":"U","NORAD_CAT_ID":62930,"ELEMENT_SET_NO":999,"REV_AT_EPOCH":6518,"BSTAR":0.00024826266,"MEAN_MOTION_DOT":1.64e-5,"MEAN_MOTION_DDOT":0},{"OBJECT_NAME":"KINEIS-2E","OBJECT_ID":"2025-028D","EPOCH":"2026-04-27T03:25:04.384704","MEAN_MOTION":14.76866572,"ECCENTRICITY":0.00013446,"INCLINATION":97.8993,"RA_OF_ASC_NODE":169.8581,"ARG_OF_PERICENTER":79.4512,"MEAN_ANOMALY":280.6849,"EPHEMERIS_TYPE":0,"CLASSIFICATION_TYPE":"U","NORAD_CAT_ID":62931,"ELEMENT_SET_NO":999,"REV_AT_EPOCH":6524,"BSTAR":0.00022948088,"MEAN_MOTION_DOT":1.562e-5,"MEAN_MOTION_DDOT":0},{"OBJECT_NAME":"KINEIS-2A","OBJECT_ID":"2025-028E","EPOCH":"2026-04-27T01:56:23.400096","MEAN_MOTION":14.72226568,"ECCENTRICITY":0.0001779,"INCLINATION":98.1188,"RA_OF_ASC_NODE":172.3989,"ARG_OF_PERICENTER":324.3748,"MEAN_ANOMALY":35.734,"EPHEMERIS_TYPE":0,"CLASSIFICATION_TYPE":"U","NORAD_CAT_ID":62932,"ELEMENT_SET_NO":999,"REV_AT_EPOCH":6508,"BSTAR":0.00021387758,"MEAN_MOTION_DOT":1.299e-5,"MEAN_MOTION_DDOT":0},{"OBJECT_NAME":"KINEIS-2B","OBJECT_ID":"2025-028G","EPOCH":"2026-04-27T03:15:44.766720","MEAN_MOTION":14.7325201,"ECCENTRICITY":0.00024512,"INCLINATION":97.9706,"RA_OF_ASC_NODE":170.9195,"ARG_OF_PERICENTER":337.5092,"MEAN_ANOMALY":22.6008,"EPHEMERIS_TYPE":0,"CLASSIFICATION_TYPE":"U","NORAD_CAT_ID":62934,"ELEMENT_SET_NO":999,"REV_AT_EPOCH":6514,"BSTAR":0.00022643178,"MEAN_MOTION_DOT":1.413e-5,"MEAN_MOTION_DDOT":0},{"OBJECT_NAME":"KINEIS-4E","OBJECT_ID":"2025-056A","EPOCH":"2026-04-27T08:19:46.620768","MEAN_MOTION":14.72376136,"ECCENTRICITY":6.13e-5,"INCLINATION":97.9156,"RA_OF_ASC_NODE":242.6482,"ARG_OF_PERICENTER":58.9826,"MEAN_ANOMALY":301.1442,"EPHEMERIS_TYPE":0,"CLASSIFICATION_TYPE":"U","NORAD_CAT_ID":63300,"ELEMENT_SET_NO":999,"REV_AT_EPOCH":5964,"BSTAR":0.00020789414,"MEAN_MOTION_DOT":1.268e-5,"MEAN_MOTION_DDOT":0},{"OBJECT_NAME":"KINEIS-4C","OBJECT_ID":"2025-056B","EPOCH":"2026-04-26T11:24:32.783616","MEAN_MOTION":14.72372411,"ECCENTRICITY":0.00045124,"INCLINATION":97.9234,"RA_OF_ASC_NODE":241.9971,"ARG_OF_PERICENTER":112.0424,"MEAN_ANOMALY":248.1263,"EPHEMERIS_TYPE":0,"CLASSIFICATION_TYPE":"U","NORAD_CAT_ID":63301,"ELEMENT_SET_NO":999,"REV_AT_EPOCH":5952,"BSTAR":4.7613913e-5,"MEAN_MOTION_DOT":2.53e-6,"MEAN_MOTION_DDOT":0},{"OBJECT_NAME":"KINEIS-4D","OBJECT_ID":"2025-056C","EPOCH":"2026-04-27T07:05:56.079744","MEAN_MOTION":14.72343423,"ECCENTRICITY":0.00036389,"INCLINATION":97.9331,"RA_OF_ASC_NODE":242.7922,"ARG_OF_PERICENTER":115.6772,"MEAN_ANOMALY":244.4812,"EPHEMERIS_TYPE":0,"CLASSIFICATION_TYPE":"U","NORAD_CAT_ID":63302,"ELEMENT_SET_NO":999,"REV_AT_EPOCH":5964,"BSTAR":0.00012764089,"MEAN_MOTION_DOT":7.59e-6,"MEAN_MOTION_DDOT":0},{"OBJECT_NAME":"KINEIS-4A","OBJECT_ID":"2025-056D","EPOCH":"2026-04-27T06:16:17.768064","MEAN_MOTION":14.72264931,"ECCENTRICITY":0.00030858,"INCLINATION":97.9229,"RA_OF_ASC_NODE":242.6735,"ARG_OF_PERICENTER":98.8806,"MEAN_ANOMALY":261.2751,"EPHEMERIS_TYPE":0,"CLASSIFICATION_TYPE":"U","NORAD_CAT_ID":63303,"ELEMENT_SET_NO":999,"REV_AT_EPOCH":5963,"BSTAR":0.00063834716,"MEAN_MOTION_DOT":3.984e-5,"MEAN_MOTION_DDOT":0},{"OBJECT_NAME":"KINEIS-4B","OBJECT_ID":"2025-056E","EPOCH":"2026-04-27T07:29:49.122240","MEAN_MOTION":14.7229248,"ECCENTRICITY":0.0006795,"INCLINATION":97.9241,"RA_OF_ASC_NODE":242.7689,"ARG_OF_PERICENTER":92.5848,"MEAN_ANOMALY":267.6137,"EPHEMERIS_TYPE":0,"CLASSIFICATION_TYPE":"U","NORAD_CAT_ID":63304,"ELEMENT_SET_NO":999,"REV_AT_EPOCH":5963,"BSTAR":1.2155e-5,"MEAN_MOTION_DOT":2.8e-7,"MEAN_MOTION_DDOT":0}]
