KINEIS-5E               
1 62083U 24219C   26117.27445830  .00000752  00000+0  12658-3 0  9995
2 62083  97.8946 277.6767 0007736  74.7699 285.4363 14.72323078 76271
KINEIS-5A               
1 62084U 24219D   26117.30937898  .00001103  00000+0  18223-3 0  9995
2 62084  97.9285 277.9723 0007222  87.9839 272.2195 14.72290296 76289
KINEIS-5B               
1 62085U 24219E   26117.28197207  .00001290  00000+0  18507-3 0  9997
2 62085  98.0018 281.4295 0003281  85.3191 274.8394 14.78219198 76483
KINEIS-2C               
1 62929U 25028B   26116.70497269  .00001344  00000+0  21727-3 0  9998
2 62929  98.0489 171.2888 0002365 115.6509 244.4944 14.72957967 65038
KINEIS-2D               
1 62930U 25028C   26117.12683235  .00001640  00000+0  24826-3 0  9999
2 62930  97.9324 170.5527 0003615  35.4782 324.6667 14.75518621 65181
KINEIS-2E               
1 62931U 25028D   26117.14241186  .00001562  00000+0  22948-3 0  9993
2 62931  97.8993 169.8581 0001344  79.4512 280.6849 14.76866572 65242
KINEIS-2A               
1 62932U 25028E   26117.08082639  .00001299  00000+0  21388-3 0  9997
2 62932  98.1188 172.3989 0001779 324.3748  35.7340 14.72226568 65087
KINEIS-2B               
1 62934U 25028G   26117.13593480  .00001413  00000+0  22643-3 0  9999
2 62934  97.9706 170.9195 0002451 337.5092  22.6008 14.73252010 65146
KINEIS-4E               
1 63300U 25056A   26117.34706737  .00001268  00000+0  20789-3 0  9999
2 63300  97.9156 242.6482 0000613  58.9826 301.1442 14.72376136 59646
KINEIS-4C               
1 63301U 25056B   26116.47537944  .00000253  00000+0  47614-4 0  9995
2 63301  97.9234 241.9971 0004512 112.0424 248.1263 14.72372411 59527
KINEIS-4D               
1 63302U 25056C   26117.29578796  .00000759  00000+0  12764-3 0  9995
2 63302  97.9331 242.7922 0003638 115.6772 244.4812 14.72343423 59647
KINEIS-4A               
1 63303U 25056D   26117.26131676  .00003984  00000+0  63835-3 0  9993
2 63303  97.9229 242.6735 0003085  98.8806 261.2751 14.72264931 59635
KINEIS-4B               
1 63304U 25056E   26117.31237410  .00000028  00000+0  12155-4 0  9999
2 63304  97.9241 242.7689 0006795  92.5848 267.6137 14.72292480 59635
